ORBCOMM FM33            
1 25983U 99065D   25180.37244427  .00000430  00000+0  18018-3 0  9992
2 25983  45.0293 301.0246 0008609 135.3284 224.8260 14.40018625337825
ORBCOMM FM36            
1 25984U 99065E   25180.00602542  .00000590  00000+0  23944-3 0  9990
2 25984  45.0404  34.8842 0003371  12.7321 347.3612 14.38142476336127
ORBCOMM FM35            
1 25985U 99065F   25180.34178636  .00000437  00000+0  19328-3 0  9991
2 25985  45.0407  38.4226 0004115  91.2593 268.8727 14.37112698336538
ORBCOMM FM34            
1 25986U 99065G   25179.33437460  .00000415  00000+0  18597-3 0  9995
2 25986  45.0403  43.6551 0004499  40.0998 320.0182 14.37133794336503
ORBCOMM FM38            
1 33060U 08031A   25180.21870810  .00000737  00000+0  12071-3 0  9997
2 33060  48.4404 257.9086 0004137  91.9613 268.1777 14.81355243916537
ORBCOMM FM41            
1 33061U 08031B   25180.49771212  .00000714  00000+0  11884-3 0  9990
2 33061  48.4443 264.4001 0003370  74.5793 298.8776 14.80940967916064
ORBCOMM FM29            
1 33062U 08031C   25180.49638509  .00000792  00000+0  12855-3 0  9997
2 33062  48.4397 272.2011 0005062  75.0658  19.7711 14.81044314915977
ORBCOMM FM39            
1 33063U 08031D   25180.38643139  .00000730  00000+0  12447-3 0  9990
2 33063  48.4414 297.1308 0006130  44.3812 315.7594 14.79593408915609
